[Satellite]
VERSION=1.1
NAME=ONEWEB-0508
NICKNAME=ONEWEB-0508
TLE1=1 54126U 22138P   22321.58334491 -.00885227  00000+0 -13058+0 0  9990
TLE2=2 54126  87.4526 208.5635 0012222 189.2684 317.7415 14.78212662  1309
STATUS=0
